#dP2021  4 28  6  0  0.00000000      96 __u+U ITR00 EXT  IAC
## 2155 280800.00000000   900.00000000 59332 0.2500000000000
+  116   C06C07C08C09C10C11C12C13C14C16C19C20C21C22C23C24C25
+        C26C27C28C29C30C32C33C34C35C36C37C38C39C40C41C42C43
+        C44C45C46E01E02E03E04E05E07E08E09E11E12E13E14E15E18
+        E19E21E24E25E26E27E30E31E33E36G01G02G03G04G05G06G07
+        G08G09G10G12G13G14G15G16G17G18G19G20G21G22G23G24G25
+        G26G27G28G29G30G31G32J01J02J03R01R02R03R04R05R07R08
+        R09R11R12R13R14R15R16R17R18R19R20R21R22R24  0  0  0
++        10  9 10  9 11  9  9  9 10 11  8 10 10  9  9 10  9
++        10  9 10  9 10  8  8 10  9  9  9 11  9 12  9  9  7
++        11 10  8  9  9  9  8 10  8  9  9  9  7  9  9  8 10
++         9  8 10  8  9  8  8  8  9 11  8  8  8  9  9  8 10
++         8  8  8  9  9  9  9  8  8  8  8  9  9  9  8  9  8
++         9  8  8 10 10  8  8 11 10 12  9  9  8  9  9 10  9
++        10  8  9  9 10 10 10  9 10  9  9  8 10  9  0  0  0
%c M  cc GPS ccc cccc cccc cccc cccc ccccc ccccc ccccc ccccc
%c cc cc ccc ccc cccc cccc cccc cccc ccccc ccccc ccccc ccccc
%f  0.0000000  0.000000000  0.00000000000  0.000000000000000
%f  0.0000000  0.000000000  0.00000000000  0.000000000000000
%i    0    0    0    0      0      0      0      0         0
%i    0    0    0    0      0      0      0      0         0
/* IAC                                ULTRA-RAPID PREDICTION
/* S/V CLOCKS ARE ALIGNED TO GNSS TIME                      
/* G:C1WC2W R:C1PC2P E:C1XC5X C:C2IC6I J:C1CC2S             
/* PCV:IGS14_2148 OL/AL:FES2004  NONE     YN ORB:CoN CLK:CoN
*  2021 04 29  0 45  0.00000000
PC06 -22761.085836  34341.972258   8094.670341    327.671283
PC07  -9373.099570  31921.233905  26436.991387   -168.446081
PC08 -17661.948717  17149.694873 -34209.472285   -890.653168
PC09 -11578.846561  34199.891988  21705.373861    561.835529
PC10   3157.317895  39097.678222  16257.344279    -49.911080
PC11   6786.156268  14118.348687 -23040.820982    310.901096
PC12 -10484.278919  21719.271666 -14021.664865    906.563164
PC13  -2349.092058  22485.935277 -35480.335509    240.227754
PC14  11055.730339  24472.051360   7734.529451    591.150881
PC16 -20469.002811  35113.919541  10894.397030   -808.561958
PC19 -15124.936375 -17320.851214 -15763.444605    815.718151
PC20  -6126.374171 -27206.976605     51.867223   -940.811546
PC21  -6997.864515  21314.315430 -16589.233816   -946.180527
PC22 -15623.819713   2955.322621 -22922.325600   -961.782081
PC23  25821.807084    395.572651 -10572.435758   -896.050199
PC24   7350.456155  17635.125778  20323.892393   -830.262940
PC25  24393.896573  11932.148599   6377.866731   -925.195306
PC26 -11753.230312  12767.890445  21852.430357    914.407725
PC27  17719.171023 -20837.554811   5567.348196    523.101246
PC28  23312.532787  -9731.959505 -11854.798322    -80.681935
PC29 -15505.721865  -6482.486243  22266.467506    385.178074
PC30   1484.812545 -20001.496536  19406.610049    463.848740
PC32   6895.662149 -21325.997823  16638.432732   -940.903018
PC33  15245.488193  17308.353886  15734.708377   -942.614918
PC34   -756.025621  19675.620286 -19775.762014   -685.303361
PC35 -22947.892981  10218.780684  12105.284865   -305.214873
PC36 -23944.643962 -12665.257116  -6685.411674   -728.771604
PC37  12886.037747 -12043.213512 -21606.362541   -904.377983
PC38 -12764.873388  21270.464241 -34096.700402    145.304205
PC39 -16053.923061  36578.801598  13241.684966     30.682251
PC40  -1066.875595  37324.022858  19728.141205    155.778785
PC41  15761.655694  -2649.699290  22929.492808   -946.163403
PC42   5746.672696  27308.669566   -667.491773   -919.390228
PC43  15213.349402   7073.000307 -22312.701465   -706.693387
PC44 -17064.662128  21387.043167  -5400.597918    161.463164
PC45 -25781.089953   -322.549083  10702.842490    426.268031
PC46  -8517.510155 -17552.519886 -19961.363002    294.812830
PE01 -23945.575599 -13899.965389  10473.452272  -1096.822749
PE02  23947.638341  13786.774020 -10593.835965    215.462145
PE03  16006.839499   6275.212876  24099.812348   -425.256617
PE04 -17451.852621  15336.682412 -18330.979609   -759.947133
PE05   5138.447202  24508.012521  15793.439882   -285.105687
PE07   8625.052871 -28262.212909   1650.630985   -531.382009
PE08  17211.871785 -15738.141126  18226.168402   6010.361535
PE09  -8354.547194  28367.474403  -1469.007055   5685.281032
PE11 -12484.969012  17395.341077 -20436.247226   6042.187025
PE12 -27397.067229  10434.192080  -3992.355781   5236.503331
PE13  12923.845403 -17339.299959  20220.479551    415.673573
PE14 -18817.021175  14075.002071  11474.950461  -1413.077882
PE15  27371.309944 -10541.841251   4033.077652    817.032659
PE18  22081.519942  -3313.404117 -21049.444139  -1546.278685
PE19 -15034.475600  -8734.016880 -23944.601862    263.917479
PE21 -16372.772502 -23453.134822  -7633.398437   -661.968744
PE24  -1886.769896  19406.207404  22249.254743   -872.180058
PE25  16233.141011  23484.404417   7812.599106   -532.283601
PE26  -9945.702322 -13788.650042  24232.610344   1870.713779
PE27   1008.077698 -19826.025131 -21960.283887    -21.211835
PE30  18310.210074  -3677.720727 -22972.577892   2987.374466
PE31 -17692.610650   4565.179006  23291.609441   -480.630187
PE33 -25674.930131  -2461.198487  14513.659909   -468.036557
PE36   9134.909142  13911.505090 -24477.541049   -200.032087
PG01   9285.770962  13545.593105 -21206.257449    703.709040
PG02  15806.884625 -14061.677845  16740.948889   -599.786694
PG03  12320.668120  23253.316689  -4096.081323   -149.738424
PG04   2501.287745  20405.465186  16794.549970   -194.058826
PG05    166.803933 -20172.938892  17032.371061    -40.427957
PG06  24829.576179  -6440.887816   7073.673282     11.011157
PG07  21924.646150   8164.912254  13376.466906    135.951847
PG08  -3998.329538  24275.009456  -9607.015555    -19.231453
PG09  11408.568827  11143.517041  21178.252982   -342.145085
PG10 -18357.926098  -4080.934517 -18744.580174   -111.480494
PG12  -8811.832376 -24313.103528  -6643.194381    -34.072479
PG13  12823.818559 -23011.956826  -2894.456843    125.610101
PG14  18393.267283   5085.701066 -18495.790430     91.953935
PG15    675.476138 -24546.112358 -10017.709917   -152.972854
PG16  -5313.906776  17225.899610  19095.249329   -316.990746
PG17  17560.379888  -5833.747889 -18627.332551    434.011310
PG18 -24028.509456  -5635.193736   9889.075368    351.322027
PG19  18863.381487 -13129.288723 -13501.937243     -6.802830
PG20 -14594.984807 -21721.572807   5248.081032    522.707608
PG21    883.621468  14958.319136 -21201.821521    114.425007
PG22   6495.031719  22432.284176 -12626.505077   -626.937818
PG23 -19597.381948 -14096.861640 -11147.294306    110.607888
PG24  -3956.881200 -15447.159228 -21503.504266     43.258547
PG25 -17435.900483 -19548.257966   4935.199804    127.451137
PG26 -12101.806430   9843.474607  21435.214894     78.450197
PG27 -12210.345552  23319.820531   1153.344328   -121.023361
PG28  16435.772852   1320.461483 -20239.594023    579.521884
PG29 -10033.178015 -11459.727934  21704.297563   -338.113249
PG30  26670.958194   -558.691529    873.293644   -419.176180
PG31 -23818.098874   7744.209995   9429.212232   -114.303947
PG32 -17790.880499   8341.825021 -17679.798808     21.891336
PJ01 -21027.994282  28328.117043 -18501.245190   -371.564533
PJ02 -25422.368186  21875.989935  30428.678116      6.676980
PJ03 -34892.027517  23707.770882   4252.636176     -4.314097
PR01 -11037.463105   1105.759186 -22962.808437     78.616489
PR02  -5702.695457  20958.085450 -13281.124378    476.621435
PR03   2624.166520  25075.336479   3746.672075     35.008523
PR04   9155.416106  15045.912107  18482.090978     84.470627
PR05  10670.375584  -3361.382294  22941.337831     70.806170
PR07  -2834.925227 -25006.884942  -4250.583004    -42.522252
PR08  -9231.838084 -15038.340123 -18367.514222    -58.755051
PR09   7632.945162  -8651.562910 -22739.796854     -9.735627
PR11 -21808.111005 -12833.995417  -3164.852246     -1.164373
PR12 -20869.914383  -3288.324704  14331.736105    224.650692
PR13  -8044.325592   8095.779986  22793.714281    -54.062749
PR14  10136.942156  15089.315823  17910.237965     63.673919
PR15  21764.874297  13023.074466   2729.711829    104.104391
PR16  20419.086076   1979.487257 -15096.240443    -14.400898
PR17  -3408.591717  13504.339623 -21372.710403    419.690562
PR18  12547.532609   3847.842943 -21873.696172     74.715000
PR19  21787.903047  -6676.538543 -11467.299615   -141.644929
PR20  18803.635308 -15089.543768   8408.657872    -48.173657
PR21   2267.917745 -12921.535942  21868.384862   -205.142043
PR22 -13247.460877  -3227.481360  21515.867248   -110.123934
PR24 -18052.696639  15619.042296  -8986.783798     40.645678
EOF
